{"type": "FeatureCollection", "features": [{"type": "Feature", "properties": {"norad_id": 24876, "name": "GPS BIIR-2  (PRN 13)", "group": "gnss", "lat": 37.59665054327468, "lon": -105.71808084355933, "alt_km": 20111.467095890566, "timestamp": "2025-12-16T21:38:57.416382+00:00", "meta": {"OBJECT_NAME": "GPS BIIR-2  (PRN 13)", "OBJECT_ID": "1997-035A", "EPOCH": "2025-12-15T17:22:46.609248", "MEAN_MOTION": 2.0056369, "ECCENTRICITY": 0.00967808, "INCLINATION": 55.8966, "RA_OF_ASC_NODE": 105.7521, "ARG_OF_PERICENTER": 56.9888, "MEAN_ANOMALY": 303.9092, "EPHEMERIS_TYPE": 0, "CLASSIFICATION_TYPE": "U", "NORAD_CAT_ID": 24876, "ELEMENT_SET_NO": 999, "REV_AT_EPOCH": 20827, "BSTAR": 0, "MEAN_MOTION_DOT": -1.8e-07, "MEAN_MOTION_DDOT": 0}, "tle": {"line1": "1 24876U 97035A   25349.72415057 -.00000018  00000+0  00000+0 0  9993", "line2": "2 24876  55.8966 105.7521 0096780  56.9888 303.9092  2.00563690208279"}}, "geometry": {"type": "Point", "coordinates": [-105.71808084355933, 37.59665054327468]}}, {"type": "Feature", "properties": {"norad_id": 26360, "name": "GPS BIIR-4  (PRN 20)", "group": "gnss", "lat": -34.160104911694546, "lon": -124.99531957795365, "alt_km": 20088.241025840496, "timestamp": "2025-12-16T21:38:57.416428+00:00", "meta": {"OBJECT_NAME": "GPS BIIR-4  (PRN 20)", "OBJECT_ID": "2000-025A", "EPOCH": "2025-12-16T02:31:28.682976", "MEAN_MOTION": 2.00567527, "ECCENTRICITY": 0.00388818, "INCLINATION": 55.0472, "RA_OF_ASC_NODE": 26.7017, "ARG_OF_PERICENTER": 242.3164, "MEAN_ANOMALY": 125.7011, "EPHEMERIS_TYPE": 0, "CLASSIFICATION_TYPE": "U", "NORAD_CAT_ID": 26360, "ELEMENT_SET_NO": 999, "REV_AT_EPOCH": 18760, "BSTAR": 0, "MEAN_MOTION_DOT": -8.7e-07, "MEAN_MOTION_DDOT": 0}, "tle": {"line1": "1 26360U 00025A   25350.10519309 -.00000087  00000+0  00000+0 0  9991", "line2": "2 26360  55.0472  26.7017 0038881 242.3164 125.7011  2.00567527187608"}}, "geometry": {"type": "Point", "coordinates": [-124.99531957795365, -34.160104911694546]}}, {"type": "Feature", "properties": {"norad_id": 26407, "name": "GPS BIIR-5  (PRN 22)", "group": "gnss", "lat": 47.424562145106215, "lon": -87.66340212215556, "alt_km": 20351.208001943214, "timestamp": "2025-12-16T21:38:57.416446+00:00", "meta": {"OBJECT_NAME": "GPS BIIR-5  (PRN 22)", "OBJECT_ID": "2000-040A", "EPOCH": "2025-12-16T01:22:34.275360", "MEAN_MOTION": 2.00568075, "ECCENTRICITY": 0.01258355, "INCLINATION": 54.89, "RA_OF_ASC_NODE": 222.437, "ARG_OF_PERICENTER": 301.8664, "MEAN_ANOMALY": 231.2239, "EPHEMERIS_TYPE": 0, "CLASSIFICATION_TYPE": "U", "NORAD_CAT_ID": 26407, "ELEMENT_SET_NO": 999, "REV_AT_EPOCH": 18627, "BSTAR": 0, "MEAN_MOTION_DOT": 5.9e-07, "MEAN_MOTION_DDOT": 0}, "tle": {"line1": "1 26407U 00040A   25350.05734115  .00000059  00000+0  00000+0 0  9996", "line2": "2 26407  54.8900 222.4370 0125835 301.8664 231.2239  2.00568075186278"}}, "geometry": {"type": "Point", "coordinates": [-87.66340212215556, 47.424562145106215]}}, {"type": "Feature", "properties": {"norad_id": 27663, "name": "GPS BIIR-8  (PRN 16)", "group": "gnss", "lat": -16.11251330224974, "lon": 53.92519881216227, "alt_km": 20514.836690455246, "timestamp": "2025-12-16T21:38:57.416460+00:00", "meta": {"OBJECT_NAME": "GPS BIIR-8  (PRN 16)", "OBJECT_ID": "2003-005A", "EPOCH": "2025-12-15T15:27:32.010336", "MEAN_MOTION": 2.00570814, "ECCENTRICITY": 0.01475727, "INCLINATION": 54.9227, "RA_OF_ASC_NODE": 222.2628, "ARG_OF_PERICENTER": 51.8406, "MEAN_ANOMALY": 318.7887, "EPHEMERIS_TYPE": 0, "CLASSIFICATION_TYPE": "U", "NORAD_CAT_ID": 27663, "ELEMENT_SET_NO": 999, "REV_AT_EPOCH": 16763, "BSTAR": 0, "MEAN_MOTION_DOT": 5.5e-07, "MEAN_MOTION_DDOT": 0}, "tle": {"line1": "1 27663U 03005A   25349.64412049  .00000055  00000+0  00000+0 0  9993", "line2": "2 27663  54.9227 222.2628 0147572  51.8406 318.7887  2.00570814167631"}}, "geometry": {"type": "Point", "coordinates": [53.92519881216227, -16.11251330224974]}}, {"type": "Feature", "properties": {"norad_id": 28190, "name": "GPS BIIR-11 (PRN 19)", "group": "gnss", "lat": -2.201683005270418, "lon": -78.51002529350873, "alt_km": 20467.036460620617, "timestamp": "2025-12-16T21:38:57.416473+00:00", "meta": {"OBJECT_NAME": "GPS BIIR-11 (PRN 19)", "OBJECT_ID": "2004-009A", "EPOCH": "2025-12-14T15:49:47.343936", "MEAN_MOTION": 2.00560762, "ECCENTRICITY": 0.01083648, "INCLINATION": 54.9839, "RA_OF_ASC_NODE": 283.1415, "ARG_OF_PERICENTER": 167.6892, "MEAN_ANOMALY": 10.6801, "EPHEMERIS_TYPE": 0, "CLASSIFICATION_TYPE": "U", "NORAD_CAT_ID": 28190, "ELEMENT_SET_NO": 999, "REV_AT_EPOCH": 15924, "BSTAR": 0, "MEAN_MOTION_DOT": -7.9e-07, "MEAN_MOTION_DDOT": 0}, "tle": {"line1": "1 28190U 04009A   25348.65957574 -.00000079  00000+0  00000+0 0  9998", "line2": "2 28190  54.9839 283.1415 0108364 167.6892  10.6801  2.00560762159240"}}, "geometry": {"type": "Point", "coordinates": [-78.51002529350873, -2.201683005270418]}}, {"type": "Feature", "properties": {"norad_id": 28474, "name": "GPS BIIR-13 (PRN 02)", "group": "gnss", "lat": 45.118024870080845, "lon": 16.43300776832222, "alt_km": 20327.229235931292, "timestamp": "2025-12-16T21:38:57.416486+00:00", "meta": {"OBJECT_NAME": "GPS BIIR-13 (PRN 02)", "OBJECT_ID": "2004-045A", "EPOCH": "2025-12-15T08:55:34.317408", "MEAN_MOTION": 2.00569721, "ECCENTRICITY": 0.01708177, "INCLINATION": 55.2393, "RA_OF_ASC_NODE": 332.2998, "ARG_OF_PERICENTER": 309.3676, "MEAN_ANOMALY": 83.5283, "EPHEMERIS_TYPE": 0, "CLASSIFICATION_TYPE": "U", "NORAD_CAT_ID": 28474, "ELEMENT_SET_NO": 999, "REV_AT_EPOCH": 15474, "BSTAR": 0, "MEAN_MOTION_DOT": -9.1e-07, "MEAN_MOTION_DDOT": 0}, "tle": {"line1": "1 28474U 04045A   25349.37192497 -.00000091  00000+0  00000+0 0  9992", "line2": "2 28474  55.2393 332.2998 0170817 309.3676  83.5283  2.00569721154740"}}, "geometry": {"type": "Point", "coordinates": [16.43300776832222, 45.118024870080845]}}, {"type": "Feature", "properties": {"norad_id": 28874, "name": "GPS BIIRM-1 (PRN 17)", "group": "gnss", "lat": 14.893428658306789, "lon": -68.77121261676749, "alt_km": 20141.668126104716, "timestamp": "2025-12-16T21:38:57.416499+00:00", "meta": {"OBJECT_NAME": "GPS BIIRM-1 (PRN 17)", "OBJECT_ID": "2005-038A", "EPOCH": "2025-12-15T21:22:37.236864", "MEAN_MOTION": 2.00578274, "ECCENTRICITY": 0.01315557, "INCLINATION": 55.0291, "RA_OF_ASC_NODE": 280.574, "ARG_OF_PERICENTER": 293.6034, "MEAN_ANOMALY": 72.8859, "EPHEMERIS_TYPE": 0, "CLASSIFICATION_TYPE": "U", "NORAD_CAT_ID": 28874, "ELEMENT_SET_NO": 999, "REV_AT_EPOCH": 14816, "BSTAR": 0, "MEAN_MOTION_DOT": -6.8e-07, "MEAN_MOTION_DDOT": 0}, "tle": {"line1": "1 28874U 05038A   25349.89070876 -.00000068  00000+0  00000+0 0  9996", "line2": "2 28874  55.0291 280.5740 0131555 293.6034  72.8859  2.00578274148160"}}, "geometry": {"type": "Point", "coordinates": [-68.77121261676749, 14.893428658306789]}}, {"type": "Feature", "properties": {"norad_id": 28899, "name": "INMARSAT 4-F2 (SOUTHPAN/PRN 122)", "group": "gnss", "lat": 2.3948986810269175, "lon": -165.91136121327807, "alt_km": 35782.51982151267, "timestamp": "2025-12-16T21:38:57.416513+00:00", "meta": {"OBJECT_NAME": "INMARSAT 4-F2 (SOUTHPAN/PRN 122)", "OBJECT_ID": "2005-044A", "EPOCH": "2025-12-15T22:37:50.613888", "MEAN_MOTION": 1.00272638, "ECCENTRICITY": 0.00026316, "INCLINATION": 4.8562, "RA_OF_ASC_NODE": 43.6982, "ARG_OF_PERICENTER": 224.188, "MEAN_ANOMALY": 299.9222, "EPHEMERIS_TYPE": 0, "CLASSIFICATION_TYPE": "U", "NORAD_CAT_ID": 28899, "ELEMENT_SET_NO": 999, "REV_AT_EPOCH": 7368, "BSTAR": 0, "MEAN_MOTION_DOT": -2.42e-06, "MEAN_MOTION_DDOT": 0}, "tle": {"line1": "1 28899U 05044A   25349.94294692 -.00000242  00000+0  00000+0 0  9994", "line2": "2 28899   4.8562  43.6982 0002631 224.1880 299.9222  1.00272638 73680"}}, "geometry": {"type": "Point", "coordinates": [-165.91136121327807, 2.3948986810269175]}}, {"type": "Feature", "properties": {"norad_id": 29486, "name": "GPS BIIRM-2 (PRN 31)", "group": "gnss", "lat": -53.7493459437784, "lon": 83.3492198278402, "alt_km": 20383.051753085896, "timestamp": "2025-12-16T21:38:57.416525+00:00", "meta": {"OBJECT_NAME": "GPS BIIRM-2 (PRN 31)", "OBJECT_ID": "2006-042A", "EPOCH": "2025-12-15T18:26:47.569632", "MEAN_MOTION": 2.0055408, "ECCENTRICITY": 0.01073392, "INCLINATION": 54.6945, "RA_OF_ASC_NODE": 158.6205, "ARG_OF_PERICENTER": 52.0304, "MEAN_ANOMALY": 129.1611, "EPHEMERIS_TYPE": 0, "CLASSIFICATION_TYPE": "U", "NORAD_CAT_ID": 29486, "ELEMENT_SET_NO": 999, "REV_AT_EPOCH": 14071, "BSTAR": 0, "MEAN_MOTION_DOT": 9.5e-07, "MEAN_MOTION_DDOT": 0}, "tle": {"line1": "1 29486U 06042A   25349.76860613  .00000095  00000+0  00000+0 0  9993", "line2": "2 29486  54.6945 158.6205 0107339  52.0304 129.1611  2.00554080140716"}}, "geometry": {"type": "Point", "coordinates": [83.3492198278402, -53.7493459437784]}}, {"type": "Feature", "properties": {"norad_id": 29601, "name": "GPS BIIRM-3 (PRN 12)", "group": "gnss", "lat": -19.07277445495315, "lon": -152.78324411758794, "alt_km": 20265.46909714153, "timestamp": "2025-12-16T21:38:57.416538+00:00", "meta": {"OBJECT_NAME": "GPS BIIRM-3 (PRN 12)", "OBJECT_ID": "2006-052A", "EPOCH": "2025-12-15T22:30:08.867232", "MEAN_MOTION": 2.00573827, "ECCENTRICITY": 0.00878265, "INCLINATION": 54.9699, "RA_OF_ASC_NODE": 221.2713, "ARG_OF_PERICENTER": 87.4673, "MEAN_ANOMALY": 273.6251, "EPHEMERIS_TYPE": 0, "CLASSIFICATION_TYPE": "U", "NORAD_CAT_ID": 29601, "ELEMENT_SET_NO": 999, "REV_AT_EPOCH": 13973, "BSTAR": 0, "MEAN_MOTION_DOT": 6e-07, "MEAN_MOTION_DDOT": 0}, "tle": {"line1": "1 29601U 06052A   25349.93760263  .00000060  00000+0  00000+0 0  9994", "line2": "2 29601  54.9699 221.2713 0087826  87.4673 273.6251  2.00573827139739"}}, "geometry": {"type": "Point", "coordinates": [-152.78324411758794, -19.07277445495315]}}]}